{
  "norad_id": 66652,
  "name": "2025-274C",
  "history": [
    {
      "epoch": "2026-03-28T18:14:24.250560Z",
      "apogee_km": 596.6276168174845,
      "perigee_km": 582.5880290639489,
      "latitude_deg": -7.694350866006257e-05,
      "longitude_deg": -81.63566250455973,
      "height_km": 593.0683899528889,
      "semi_major_axis_km": 6967.744822940716,
      "eccentricity": 0.00100747,
      "inclination_deg": 97.745,
      "raan_deg": 18.1412,
      "arg_perigee_deg": 266.6575,
      "mean_anomaly_deg": 93.3491,
      "mean_motion_rev_day": 14.92672068
    },
    {
      "epoch": "2026-03-30T05:38:04.459776Z",
      "apogee_km": 596.59480646883,
      "perigee_km": 582.5324537031765,
      "latitude_deg": -2.184590992707861e-05,
      "longitude_deg": 107.44399176007926,
      "height_km": 593.7134499906899,
      "semi_major_axis_km": 6967.700630086003,
      "eccentricity": 0.00100911,
      "inclination_deg": 97.7454,
      "raan_deg": 19.592,
      "arg_perigee_deg": 261.0126,
      "mean_anomaly_deg": 98.9951,
      "mean_motion_rev_day": 14.92686269
    },
    {
      "epoch": "2026-03-30T07:14:36.218976Z",
      "apogee_km": 596.590457011469,
      "perigee_km": 582.527834588248,
      "latitude_deg": 3.811717318497712e-05,
      "longitude_deg": 83.31168175443058,
      "height_km": 593.7249613405141,
      "semi_major_axis_km": 6967.696145799859,
      "eccentricity": 0.00100913,
      "inclination_deg": 97.7455,
      "raan_deg": 19.6581,
      "arg_perigee_deg": 260.8808,
      "mean_anomaly_deg": 99.127,
      "mean_motion_rev_day": 14.9268771
    },
    {
      "epoch": "2026-03-30T18:30:18.707904Z",
      "apogee_km": 596.595192451462,
      "perigee_km": 582.4927455238503,
      "latitude_deg": -5.96394996191986e-05,
      "longitude_deg": -85.61614747273416,
      "height_km": 593.9263369987289,
      "semi_major_axis_km": 6967.680968987655,
      "eccentricity": 0.00101199,
      "inclination_deg": 97.7456,
      "raan_deg": 20.1198,
      "arg_perigee_deg": 259.1204,
      "mean_anomaly_deg": 100.8876,
      "mean_motion_rev_day": 14.92692587
    },
    {
      "epoch": "2026-03-31T17:01:43.472352Z",
      "apogee_km": 596.5931812026356,
      "perigee_km": 582.4516196834966,
      "latitude_deg": 1.1585760541419393e-05,
      "longitude_deg": -63.470850199367526,
      "height_km": 594.3501424467107,
      "semi_major_axis_km": 6967.659400443065,
      "eccentricity": 0.0010148,
      "inclination_deg": 97.7458,
      "raan_deg": 21.0433,
      "arg_perigee_deg": 255.4515,
      "mean_anomaly_deg": 104.5579,
      "mean_motion_rev_day": 14.92699518
    },
    {
      "epoch": "2026-04-01T20:22:43.112640Z",
      "apogee_km": 596.6303649893935,
      "perigee_km": 582.3801430514714,
      "latitude_deg": -2.0833498610337103e-05,
      "longitude_deg": -113.72106604333692,
      "height_km": 594.8523917610651,
      "semi_major_axis_km": 6967.642254020432,
      "eccentricity": 0.0010226,
      "inclination_deg": 97.7459,
      "raan_deg": 22.1648,
      "arg_perigee_deg": 251.206,
      "mean_anomaly_deg": 108.805,
      "mean_motion_rev_day": 14.92705028
    }
  ]
}